#aV2012  1 17  0  0   .00000000      96 DD+AD WGS84 FIT  NGA
## 1671 172800.00000000   900.00000000 55943  .0000000000000
+   31     1  2  3  4  5  6  7  8  9 10 11 12 13 14 15 16 17
+         18 19 20 21 22 23 25 26 27 28 29 30 31 32  0  0  0
+          0  0  0  0  0  0  0  0  0  0  0  0  0  0  0  0  0
+          0  0  0  0  0  0  0  0  0  0  0  0  0  0  0  0  0
+          0  0  0  0  0  0  0  0  0  0  0  0  0  0  0  0  0
++         0  0  0  0  0  0  0  0  0  0  0  0  0  0  0  0  0
++         0  0  0  0  0  0  0  0  0  0  0  0  0  0  0  0  0
++         0  0  0  0  0  0  0  0  0  0  0  0  0  0  0  0  0
++         0  0  0  0  0  0  0  0  0  0  0  0  0  0  0  0  0
++         0  0  0  0  0  0  0  0  0  0  0  0  0  0  0  0  0
%c cc cc ccc ccc cccc cccc cccc cccc ccccc ccccc ccccc ccccc
%c cc cc ccc ccc cccc cccc cccc cccc ccccc ccccc ccccc ccccc
%f  0.0000000  0.000000000  0.00000000000  0.000000000000000
%f  0.0000000  0.000000000  0.00000000000  0.000000000000000
%i    0    0    0    0      0      0      0      0         0
%i    0    0    0    0      0      0      0      0         0
/*      NGA, ST. LOUIS,MO.                                  
/*   EPHEMERIS COMPUTED FROM  3 DAYS OF DATA                
/* CCCCCCCCCCCCCCCCCCCCCCCCCCCCCCCCCCCCCCCCCCCCCCCCCCCCCCCCC
/* CCCCCCCCCCCCCCCCCCCCCCCCCCCCCCCCCCCCCCCCCCCCCCCCCCCCCCCCC
*  2012  1 17 23 30   .00000000                                                 
P  1 -15822.076037    122.355443  21317.644063    184.078880                    
V  1  -8655.227572 -25696.853127  -6257.880037       .125329                    
P  2  13790.461666  21798.203117  -7258.286672    375.148232                    
V  2    484.265963   9677.617853  29111.346706       .016248                    
P  3 -19993.407500 -11439.608553 -13921.113313    823.418046                    
V  3  17004.203846  -1653.311743 -23565.474305       .049904                    
P  4   6322.211309  25357.558601   3376.373079     66.532145                    
V  4  -5144.134798  -3099.580012  31045.676653       .113533                    
P  5  12010.757509   9678.490437 -21646.430159   -271.822178                    
V  5 -17837.576980  20879.347255   -438.858970      -.046239                    
P  6 -16409.346876 -13767.905123 -15741.020184     25.062382                    
V  6  20312.539948    331.800742 -21016.475619       .027541                    
P  7  -9213.404031  14843.171750 -19907.886366     50.663425                    
V  7  -9190.092371 -23665.561506 -13611.547695       .025896                    
P  8  -2423.333031  23068.669541 -12329.805990       .412223                    
V  8  -5611.191260 -15000.409317 -27380.459351       .000553                    
P  9  15974.649217   4603.746433  20160.068951    132.499006                    
V  9   8404.840853  25450.216582 -12172.306261       .024794                    
P 10  -4946.811097  21488.140692 -14757.470187    -25.967040                    
V 10 -14259.317307  12090.491369  23155.096026      -.013610                    
P 11 -20019.160828  -5544.890949  16346.006737   -223.842960                    
V 11  -9873.796717 -19447.870992 -17945.841068      -.036415                    
P 12  20208.332370  -6627.429062  15802.655844     47.188293                    
V 12 -12134.207199  16094.596443  22453.440355       .022070                    
P 13 -18531.854047   7048.611125 -17853.406685    230.140238                    
V 13 -21180.652652  -7053.261159  19272.726393      -.021122                    
P 14  -1671.602362 -15444.513280  21739.503807    190.429626                    
V 14  26369.426566   6280.089529   6407.131490       .014979                    
P 15  26412.486498   3568.137225   1083.765003    -94.451829                    
V 15    853.526544   3246.251522 -31279.968020       .006713                    
P 16 -10747.523429 -10183.227977 -22030.368252   -219.304615                    
V 16  19129.103749 -20397.523206    389.998445      -.017463                    
P 17  -1207.583465  15308.503543  21841.953327    154.169221                    
V 17 -26709.772020  -5819.758672   2383.133612      -.022586                    
P 18  16789.155525 -20311.213326   1030.262372    177.250224                    
V 18   3679.272350   1991.971860 -31268.908033       .018128                    
P 19 -25537.175113  -7942.602082  -1142.928005   -226.631973                    
V 19   2019.251025  -2054.990430 -31448.444236      -.038706                    
P 20 -20480.151155   9326.395119  13891.982084     60.254978                    
V 20   8820.070860 -15982.029326  23534.262987       .006694                    
P 21   6821.058732 -18680.034351 -16862.234098   -198.309063                    
V 21   9951.294729  20490.070695 -18780.156574      -.025465                    
P 22   6027.857798 -22103.372954  13516.285508    142.922847                    
V 22  13508.796129 -10761.169537 -24041.272534       .000576                    
P 23 -25067.286580   1501.706977  -9161.259031    241.017090                    
V 23 -10895.698995  -4473.607539  28638.344175      -.033231                    
P 25  19717.276046 -16507.203509   6544.109999     31.134161                    
V 25  -3409.723421   8026.976114  30452.781573       .002163                    
P 26  20800.137796  13241.984154 -10975.295202   -302.982978                    
V 26 -12761.259169  -2101.830445 -27923.733268      -.142499                    
P 27  17190.221246  11727.726205  17393.458892    347.362426                    
V 27   6795.384654  19510.335738 -20212.187673       .038986                    
P 28  -9337.916618  21865.607116  12130.782310    103.748852                    
V 28 -11429.217406   9307.561307 -27026.319197       .037173                    
P 29  19624.677679  -7127.128411 -16329.038218    276.131405                    
V 29  19914.653250   6504.547993  21047.642117       .036109                    
P 30  -3764.494526 -18278.722193 -19248.328065    -12.660891                    
V 30  14612.480400 -18718.653662  15206.980208      -.136406                    
P 31  -7096.671193 -25395.860154   2024.571687    196.865595                    
V 31   2990.750214   1456.963846  32205.704566       .047599                    
P 32 -18728.557846   -445.909118  18876.033129   -394.187509                    
V 32  15713.082369 -17798.902681  15817.108074      -.056416                    
EOF
